{"type": "FeatureCollection", "features": [ {"type": "Feature", "properties": {"norad_id": 43437, "name": "SENTINEL-3B", "group": "resource", "lat": 61.38575770787592, "lon": 47.646330768292046, "alt_km": 795.617071089896, "timestamp": "2025-12-24T18:55:55.714812+00:00", "meta": {"OBJECT_NAME": "SENTINEL-3B", "OBJECT_ID": "2018-039A", "EPOCH": "2025-12-24T03:29:30.270336", "MEAN_MOTION": 14.2673837, "ECCENTRICITY": 0.00016049, "INCLINATION": 98.6251, "RA_OF_ASC_NODE": 63.1665, "ARG_OF_PERICENTER": 90.5457, "MEAN_ANOMALY": 269.5907, "EPHEMERIS_TYPE": 0, "CLASSIFICATION_TYPE": "U", "NORAD_CAT_ID": 43437, "ELEMENT_SET_NO": 999, "REV_AT_EPOCH": 39916, "BSTAR": 7.7374467e-05, "MEAN_MOTION_DOT": 1.44e-06, "MEAN_MOTION_DDOT": 0}, "tle": {"line1": "1 43437U 18039A   25358.14548924  .00000144  00000+0  77374-4 0  9992", "line2": "2 43437  98.6251  63.1665 0001604  90.5457 269.5907 14.26738370399169"}}, "geometry": {"type": "Point", "coordinates": [47.646330768292046, 61.38575770787592]}}, {"type": "Feature", "properties": {"norad_id": 43461, "name": "GAOFEN-5 01", "group": "resource", "lat": 68.80634180655362, "lon": -60.5315821150945, "alt_km": 685.4651860950871, "timestamp": "2025-12-24T18:55:55.714823+00:00", "meta": {"OBJECT_NAME": "GAOFEN-5 01", "OBJECT_ID": "2018-043A", "EPOCH": "2025-12-24T03:48:41.650560", "MEAN_MOTION": 14.6042172, "ECCENTRICITY": 5.026e-05, "INCLINATION": 98.4344, "RA_OF_ASC_NODE": 321.3264, "ARG_OF_PERICENTER": 252.0081, "MEAN_ANOMALY": 108.1063, "EPHEMERIS_TYPE": 0, "CLASSIFICATION_TYPE": "U", "NORAD_CAT_ID": 43461, "ELEMENT_SET_NO": 999, "REV_AT_EPOCH": 40614, "BSTAR": 0.00010592787, "MEAN_MOTION_DOT": 4.64e-06, "MEAN_MOTION_DDOT": 0}, "tle": {"line1": "1 43461U 18043A   25358.15881540  .00000464  00000+0  10593-3 0  9993", "line2": "2 43461  98.4344 321.3264 0000502 252.0081 108.1063 14.60421720406149"}}, "geometry": {"type": "Point", "coordinates": [-60.5315821150945, 68.80634180655362]}}, {"type": "Feature", "properties": {"norad_id": 43484, "name": "GAOFEN-6", "group": "resource", "lat": 44.79153876557009, "lon": 54.82807192690781, "alt_km": 627.8680029033221, "timestamp": "2025-12-24T18:55:55.714833+00:00", "meta": {"OBJECT_NAME": "GAOFEN-6", "OBJECT_ID": "2018-048A", "EPOCH": "2025-12-24T07:20:36.843936", "MEAN_MOTION": 14.76586979, "ECCENTRICITY": 0.00126105, "INCLINATION": 97.8015, "RA_OF_ASC_NODE": 62.1842, "ARG_OF_PERICENTER": 29.4178, "MEAN_ANOMALY": 330.774, "EPHEMERIS_TYPE": 0, "CLASSIFICATION_TYPE": "U", "NORAD_CAT_ID": 43484, "ELEMENT_SET_NO": 999, "REV_AT_EPOCH": 40758, "BSTAR": 0.00016358894, "MEAN_MOTION_DOT": 1.094e-05, "MEAN_MOTION_DDOT": 0}, "tle": {"line1": "1 43484U 18048A   25358.30598199  .00001094  00000+0  16359-3 0  9991", "line2": "2 43484  97.8015  62.1842 0012610  29.4178 330.7740 14.76586979407589"}}, "geometry": {"type": "Point", "coordinates": [54.82807192690781, 44.79153876557009]}}, {"type": "Feature", "properties": {"norad_id": 43585, "name": "GAOFEN-11 01", "group": "resource", "lat": 54.50232775800072, "lon": -108.23239743484352, "alt_km": 414.4449602596851, "timestamp": "2025-12-24T18:55:55.714843+00:00", "meta": {"OBJECT_NAME": "GAOFEN-11 01", "OBJECT_ID": "2018-063A", "EPOCH": "2025-12-24T07:32:45.958848", "MEAN_MOTION": 15.49544871, "ECCENTRICITY": 0.00038885, "INCLINATION": 97.1541, "RA_OF_ASC_NODE": 61.1539, "ARG_OF_PERICENTER": 252.2484, "MEAN_ANOMALY": 107.8344, "EPHEMERIS_TYPE": 0, "CLASSIFICATION_TYPE": "U", "NORAD_CAT_ID": 43585, "ELEMENT_SET_NO": 999, "REV_AT_EPOCH": 41321, "BSTAR": 0.00038562641, "MEAN_MOTION_DOT": 0.00021209, "MEAN_MOTION_DDOT": 0}, "tle": {"line1": "1 43585U 18063A   25358.31442082  .00021209  00000+0  38563-3 0  9991", "line2": "2 43585  97.1541  61.1539 0003888 252.2484 107.8344 15.49544871413219"}}, "geometry": {"type": "Point", "coordinates": [-108.23239743484352, 54.50232775800072]}}, {"type": "Feature", "properties": {"norad_id": 43613, "name": "ICESAT-2", "group": "resource", "lat": 23.015404397777655, "lon": -116.86349369035185, "alt_km": 480.6983018564388, "timestamp": "2025-12-24T18:55:55.714853+00:00", "meta": {"OBJECT_NAME": "ICESAT-2", "OBJECT_ID": "2018-070A", "EPOCH": "2025-12-23T22:24:04.787136", "MEAN_MOTION": 15.28198972, "ECCENTRICITY": 0.0003013, "INCLINATION": 92.004, "RA_OF_ASC_NODE": 243.7581, "ARG_OF_PERICENTER": 109.8386, "MEAN_ANOMALY": 250.3188, "EPHEMERIS_TYPE": 0, "CLASSIFICATION_TYPE": "U", "NORAD_CAT_ID": 43613, "ELEMENT_SET_NO": 999, "REV_AT_EPOCH": 40569, "BSTAR": 0.00033244, "MEAN_MOTION_DOT": 9.134e-05, "MEAN_MOTION_DDOT": 0}, "tle": {"line1": "1 43613U 18070A   25357.93338874  .00009134  00000+0  33244-3 0  9995", "line2": "2 43613  92.0040 243.7581 0003013 109.8386 250.3188 15.28198972405699"}}, "geometry": {"type": "Point", "coordinates": [-116.86349369035185, 23.015404397777655]}}, {"type": "Feature", "properties": {"norad_id": 43719, "name": "HYSIS", "group": "resource", "lat": 8.60566469453434, "lon": -117.07205291297814, "alt_km": 635.5824249467933, "timestamp": "2025-12-24T18:55:55.714863+00:00", "meta": {"OBJECT_NAME": "HYSIS", "OBJECT_ID": "2018-096A", "EPOCH": "2025-12-24T06:47:31.491168", "MEAN_MOTION": 14.78676729, "ECCENTRICITY": 8.603e-05, "INCLINATION": 98.0081, "RA_OF_ASC_NODE": 61.2039, "ARG_OF_PERICENTER": 57.5373, "MEAN_ANOMALY": 302.5921, "EPHEMERIS_TYPE": 0, "CLASSIFICATION_TYPE": "U", "NORAD_CAT_ID": 43719, "ELEMENT_SET_NO": 999, "REV_AT_EPOCH": 38157, "BSTAR": 0.00025923544, "MEAN_MOTION_DOT": 1.848e-05, "MEAN_MOTION_DDOT": 0}, "tle": {"line1": "1 43719U 18096A   25358.28300337  .00001848  00000+0  25924-3 0  9992", "line2": "2 43719  98.0081  61.2039 0000860  57.5373 302.5921 14.78676729381570"}}, "geometry": {"type": "Point", "coordinates": [-117.07205291297814, 8.60566469453434]}}, {"type": "Feature", "properties": {"norad_id": 43783, "name": "KAZSTSAT", "group": "resource", "lat": -43.07006216220198, "lon": -153.57365353050503, "alt_km": 572.967684100503, "timestamp": "2025-12-24T18:55:55.714873+00:00", "meta": {"OBJECT_NAME": "KAZSTSAT", "OBJECT_ID": "2018-099AB", "EPOCH": "2025-12-24T01:55:16.634496", "MEAN_MOTION": 14.99370075, "ECCENTRICITY": 0.00062228, "INCLINATION": 97.4517, "RA_OF_ASC_NODE": 32.7761, "ARG_OF_PERICENTER": 279.4355, "MEAN_ANOMALY": 80.6165, "EPHEMERIS_TYPE": 0, "CLASSIFICATION_TYPE": "U", "NORAD_CAT_ID": 43783, "ELEMENT_SET_NO": 999, "REV_AT_EPOCH": 38506, "BSTAR": 5.1050347e-05, "MEAN_MOTION_DOT": 5.69e-06, "MEAN_MOTION_DDOT": 0}, "tle": {"line1": "1 43783U 18099AB  25358.08005364  .00000569  00000+0  51050-4 0  9995", "line2": "2 43783  97.4517  32.7761 0006222 279.4355  80.6165 14.99370075385066"}}, "geometry": {"type": "Point", "coordinates": [-153.57365353050503, -43.07006216220198]}}, {"type": "Feature", "properties": {"norad_id": 43831, "name": "SAUDISAT 5A", "group": "resource", "lat": -21.993781149044437, "lon": 61.728687896230774, "alt_km": 490.08876751358093, "timestamp": "2025-12-24T18:55:55.714883+00:00", "meta": {"OBJECT_NAME": "SAUDISAT 5A", "OBJECT_ID": "2018-102A", "EPOCH": "2025-12-24T08:00:40.715712", "MEAN_MOTION": 15.25794628, "ECCENTRICITY": 0.0011124, "INCLINATION": 97.3331, "RA_OF_ASC_NODE": 58.3009, "ARG_OF_PERICENTER": 40.2367, "MEAN_ANOMALY": 319.9692, "EPHEMERIS_TYPE": 0, "CLASSIFICATION_TYPE": "U", "NORAD_CAT_ID": 43831, "ELEMENT_SET_NO": 999, "REV_AT_EPOCH": 38899, "BSTAR": 0.00026935471, "MEAN_MOTION_DOT": 6.824e-05, "MEAN_MOTION_DDOT": 0}, "tle": {"line1": "1 43831U 18102A   25358.33380458  .00006824  00000+0  26935-3 0  9995", "line2": "2 43831  97.3331  58.3009 0011124  40.2367 319.9692 15.25794628388998"}}, "geometry": {"type": "Point", "coordinates": [61.728687896230774, -21.993781149044437]}}, {"type": "Feature", "properties": {"norad_id": 43833, "name": "SAUDISAT 5B", "group": "resource", "lat": 44.89035203368275, "lon": 54.126899712949616, "alt_km": 475.4441953080732, "timestamp": "2025-12-24T18:55:55.714894+00:00", "meta": {"OBJECT_NAME": "SAUDISAT 5B", "OBJECT_ID": "2018-102C", "EPOCH": "2025-12-24T07:43:09.373728", "MEAN_MOTION": 15.26141727, "ECCENTRICITY": 0.00118689, "INCLINATION": 97.3427, "RA_OF_ASC_NODE": 61.0484, "ARG_OF_PERICENTER": 42.3429, "MEAN_ANOMALY": 317.8723, "EPHEMERIS_TYPE": 0, "CLASSIFICATION_TYPE": "U", "NORAD_CAT_ID": 43833, "ELEMENT_SET_NO": 999, "REV_AT_EPOCH": 38910, "BSTAR": 0.00026293908, "MEAN_MOTION_DOT": 6.731e-05, "MEAN_MOTION_DDOT": 0}, "tle": {"line1": "1 43833U 18102C   25358.32163627  .00006731  00000+0  26294-3 0  9998", "line2": "2 43833  97.3427  61.0484 0011868  42.3429 317.8723 15.26141727389104"}}, "geometry": {"type": "Point", "coordinates": [54.126899712949616, 44.89035203368275]}}, {"type": "Feature", "properties": {"norad_id": 44622, "name": "GAOFEN-10R", "group": "resource", "lat": -80.39647439343399, "lon": 2.8820403069901785, "alt_km": 627.8386130935796, "timestamp": "2025-12-24T18:55:55.714904+00:00", "meta": {"OBJECT_NAME": "GAOFEN-10R", "OBJECT_ID": "2019-066A", "EPOCH": "2025-12-24T07:58:36.742080", "MEAN_MOTION": 14.82829819, "ECCENTRICITY": 0.00070632, "INCLINATION": 98.0293, "RA_OF_ASC_NODE": 305.8847, "ARG_OF_PERICENTER": 7.8564, "MEAN_ANOMALY": 352.2758, "EPHEMERIS_TYPE": 0, "CLASSIFICATION_TYPE": "U", "NORAD_CAT_ID": 44622, "ELEMENT_SET_NO": 999, "REV_AT_EPOCH": 33646, "BSTAR": 0.00020355349, "MEAN_MOTION_DOT": 1.593e-05, "MEAN_MOTION_DDOT": 0}, "tle": {"line1": "1 44622U 19066A   25358.33236970  .00001593  00000+0  20355-3 0  9991", "line2": "2 44622  98.0293 305.8847 0007063   7.8564 352.2758 14.82829819336468"}}, "geometry": {"type": "Point", "coordinates": [2.8820403069901785, -80.39647439343399]}}]}